"zip","city","county","pop"
"33024","Hollywood","Broward","76508"
"33311","Fort Lauderdale","Broward","76073"
"33023","Hollywood","Broward","73973"
"33012","Hialeah","Miami-Dade","73828"
"33025","Hollywood","Broward","73428"
"33411","West Palm Beach","Palm Beach","72546"
"33647","Tampa","Hillsborough","71004"
"34953","Port St. Lucie","St. Lucie","70705"
"34787","Winter Garden","Orange","69976"
"32828","Orlando","Orange","69497"
"33186","Miami","Miami-Dade","68581"
"33157","Miami","Miami-Dade","67455"
"33015","Hialeah","Miami-Dade","67191"
"32765","Oviedo","Seminole","64268"
"32218","Jacksonville","Duval","64007"
"33463","Lake Worth","Palm Beach","63577"
"33313","Fort Lauderdale","Broward","62842"
"32210","Jacksonville","Duval","62048"
"32822","Orlando","Orange","61760"
"34711","Clermont","Lake","61594"
"33414","West Palm Beach","Palm Beach","61323"
"33064","Pompano Beach","Broward","61293"
"32825","Orlando","Orange","61289"
"33125","Miami","Miami-Dade","61156"
"33027","Hollywood","Broward","60679"
"32244","Jacksonville","Duval","59402"
"32808","Orlando","Orange","59291"
"33142","Miami","Miami-Dade","59073"
"33511","Brandon","Hillsborough","58833"
"33458","Jupiter","Palm Beach","58714"
"33033","Homestead","Miami-Dade","58427"
"32818","Orlando","Orange","58198"
"33065","Pompano Beach","Broward","58171"
"33177","Miami","Miami-Dade","57526"
"32068","Middleburg","Clay","57305"
"34744","Kissimmee","Osceola","57134"
"32771","Sanford","Seminole","56266"
"33161","Miami","Miami-Dade","56130"
"33165","Miami","Miami-Dade","55822"
"33312","Fort Lauderdale","Broward","55298"
"32225","Jacksonville","Duval","55018"
"32162","Lady Lake","Sumter","54951"
"33063","Pompano Beach","Broward","54707"
"33467","Lake Worth","Palm Beach","54261"
"32703","Apopka","Orange","53763"
"33018","Hialeah","Miami-Dade","53419"
"33175","Miami","Miami-Dade","53348"
"33196","Miami","Miami-Dade","53047"
"33126","Miami","Miami-Dade","52986"
"32839","Orlando","Orange","52886"
"33068","Pompano Beach","Broward","52749"
"32259","Jacksonville","St. Johns","52296"
"33176","Miami","Miami-Dade","52288"
"33178","Miami","Miami-Dade","52206"
"33415","West Palm Beach","Palm Beach","51791"
"33612","Tampa","Hillsborough","51745"
"33016","Hialeah","Miami-Dade","51700"
"32792","Winter Park","Orange","51659"
"32246","Jacksonville","Duval","51589"
"32837","Orlando","Orange","51310"
"32174","Ormond Beach","Volusia","51165"
"33810","Lakeland","Polk","51139"
"33032","Homestead","Miami-Dade","50135"
"33193","Miami","Miami-Dade","49999"
"33021","Hollywood","Broward","49941"
"32304","Tallahassee","Leon","49927"
"32725","Deltona","Volusia","49923"
"32608","Gainesville","Alachua","49659"
"33614","Tampa","Hillsborough","49060"
"33324","Fort Lauderdale","Broward","49045"
"32303","Tallahassee","Leon","48507"
"33029","Hollywood","Broward","48161"
"32712","Apopka","Orange","48151"
"34668","Port Richey","Pasco","48146"
"32835","Orlando","Orange","48078"
"32256","Jacksonville","Duval","47943"
"33147","Miami","Miami-Dade","47811"
"33461","Lake Worth","Palm Beach","47735"
"34741","Kissimmee","Osceola","47710"
"33615","Tampa","Hillsborough","47512"
"33617","Tampa","Hillsborough","47441"
"33321","Fort Lauderdale","Broward","47413"
"34135","Bonita Springs","Lee","47356"
"32164","Palm Coast","Flagler","47341"
"33162","Miami","Miami-Dade","47123"
"33610","Tampa","Hillsborough","46799"
"33319","Fort Lauderdale","Broward","46786"
"33155","Miami","Miami-Dade","46617"
"32824","Orlando","Orange","46482"
"34221","Palmetto","Manatee","46357"
"34761","Ocoee","Orange","45864"
"34786","Windermere","Orange","45836"
"32738","Deltona","Volusia","45611"
"32708","Winter Springs","Seminole","45323"
"33010","Hialeah","Miami-Dade","45246"
"32746","Lake Mary","Seminole","45244"
"33020","Hollywood","Broward","45147"
"34743","Kissimmee","Osceola","45109"
"32907","Palm Bay","Brevard","45037"
"34997","Stuart","Martin","44632"
"33436","Boynton Beach","Palm Beach","44489"
"33179","Miami","Miami-Dade","44341"
"34746","Kissimmee","Osceola","44307"
"32224","Jacksonville","Duval","44058"
"32137","Palm Coast","Flagler","43876"
"33172","Miami","Miami-Dade","43356"
"34758","Kissimmee","Osceola","43143"
"34983","Port St. Lucie","St. Lucie","42818"
"32073","Orange Park","Clay","42520"
"32514","Pensacola","Escambia","42444"
"34609","Spring Hill","Hernando","42227"
"32940","Melbourne","Brevard","42171"
"33014","Hialeah","Miami-Dade","41924"
"34655","New Port Richey","Pasco","41872"
"33169","Miami","Miami-Dade","41626"
"33009","Hallandale","Broward","41578"
"34952","Port St. Lucie","St. Lucie","41567"
"33428","Boca Raton","Palm Beach","41441"
"32935","Melbourne","Brevard","41209"
"32811","Orlando","Orange","41057"
"34208","Bradenton","Manatee","40998"
"33418","West Palm Beach","Palm Beach","40926"
"33055","Opa Locka","Miami-Dade","40883"
"33309","Fort Lauderdale","Broward","40844"
"34759","Kissimmee","Polk","40713"
"33880","Winter Haven","Polk","40519"
"33134","Miami","Miami-Dade","40265"
"33433","Boca Raton","Palm Beach","40257"
"32566","Navarre","Santa Rosa","40232"
"33619","Tampa","Hillsborough","40092"
"34748","Leesburg","Lake","39977"
"33624","Tampa","Hillsborough","39803"
"33141","Miami Beach","Miami-Dade","39768"
"33160","North Miami Beach","Miami-Dade","39615"
"33604","Tampa","Hillsborough","39604"
"34293","Venice","Sarasota","39534"
"32404","Panama City","Bay","39503"
"33139","Miami Beach","Miami-Dade","39427"
"33071","Pompano Beach","Broward","39402"
"33322","Fort Lauderdale","Broward","39097"
"33076","Pompano Beach","Broward","39091"
"32257","Jacksonville","Duval","39000"
"34203","Bradenton","Manatee","38971"
"33135","Miami","Miami-Dade","38920"
"32955","Rockledge","Brevard","38889"
"34698","Dunedin","Pinellas","38720"
"33317","Fort Lauderdale","Broward","38427"
"33914","Cape Coral","Lee","38281"
"32216","Jacksonville","Duval","38231"
"33813","Lakeland","Polk","38214"
"33437","Boynton Beach","Palm Beach","38152"
"34785","Wildwood","Sumter","38097"
"32714","Altamonte Springs","Seminole","37981"
"32810","Orlando","Orange","37861"
"33060","Pompano Beach","Broward","37612"
"33905","Fort Myers","Lee","37492"
"32526","Pensacola","Escambia","37470"
"32065","Orange Park","Clay","37195"
"32092","Saint Augustine","St. Johns","37014"
"32724","Deland","Volusia","36961"
"33183","Miami","Miami-Dade","36725"
"33844","Haines City","Polk","36701"
"32506","Pensacola","Escambia","36664"
"33908","Fort Myers","Lee","36513"
"32034","Fernandina Beach","Nassau","36395"
"34207","Bradenton","Manatee","36292"
"33613","Tampa","Hillsborough","36270"
"33435","Boynton Beach","Palm Beach","36166"
"32780","Titusville","Brevard","36116"
"34116","Naples","Collier","36111"
"33056","Opa Locka","Miami-Dade","36110"
"32707","Casselberry","Seminole","36036"
"32826","Orlando","Orange","35981"
"32812","Orlando","Orange","35855"
"33351","Fort Lauderdale","Broward","35769"
"32084","Saint Augustine","St. Johns","35761"
"32817","Orlando","Orange","35737"
"32211","Jacksonville","Duval","35657"
"33133","Miami","Miami-Dade","35592"
"32571","Milton","Santa Rosa","35520"
"34120","Naples","Collier","35498"
"32207","Jacksonville","Duval","35488"
"33073","Pompano Beach","Broward","35378"
"33030","Homestead","Miami-Dade","35303"
"34232","Sarasota","Sarasota","35240"
"34209","Bradenton","Manatee","35172"
"33410","West Palm Beach","Palm Beach","35089"
"32209","Jacksonville","Duval","34945"
"33594","Valrico","Hillsborough","34941"
"34608","Spring Hill","Hernando","34802"
"32807","Orlando","Orange","34749"
"33990","Cape Coral","Lee","34657"
"34653","New Port Richey","Pasco","34588"
"33040","Key West","Monroe","34471"
"33174","Miami","Miami-Dade","34403"
"33801","Lakeland","Polk","34370"
"33881","Winter Haven","Polk","34340"
"32547","Fort Walton Beach","Okaloosa","34330"
"32503","Pensacola","Escambia","34233"
"33710","Saint Petersburg","Pinellas","34222"
"32258","Jacksonville","Duval","34036"
"33756","Clearwater","Pinellas","33971"
"33417","West Palm Beach","Palm Beach","33743"
"33823","Auburndale","Polk","33615"
"34683","Palm Harbor","Pinellas","33514"
"33156","Miami","Miami-Dade","33514"
"33952","Port Charlotte","Charlotte","33390"
"34667","Hudson","Pasco","33272"
"33462","Lake Worth","Palm Beach","33241"
"33409","West Palm Beach","Palm Beach","33212"
"33326","Fort Lauderdale","Broward","33155"
"32578","Niceville","Okaloosa","33130"
"33173","Miami","Miami-Dade","33089"
"33611","Tampa","Hillsborough","33070"
"34119","Naples","Collier","32911"
"32114","Daytona Beach","Volusia","32847"
"32312","Tallahassee","Leon","32783"
"33460","Lake Worth","Palm Beach","32573"
"33180","Miami","Miami-Dade","32441"
"32720","Deland","Volusia","32421"
"33713","Saint Petersburg","Pinellas","32348"
"32277","Jacksonville","Duval","32327"
"34205","Bradenton","Manatee","32294"
"32405","Panama City","Bay","32239"
"34266","Arcadia","De Soto","32229"
"32904","Melbourne","Brevard","32138"
"33884","Winter Haven","Polk","32019"
"33702","Saint Petersburg","Pinellas","32019"
"33127","Miami","Miami-Dade","31902"
"34243","Sarasota","Manatee","31901"
"33026","Hollywood","Broward","31891"
"33054","Opa Locka","Miami-Dade","31797"
"33909","Cape Coral","Lee","31750"
"33013","Hialeah","Miami-Dade","31712"
"33445","Delray Beach","Palm Beach","31703"
"32309","Tallahassee","Leon","31597"
"33407","West Palm Beach","Palm Beach","31551"
"34772","St. Cloud","Osceola","31436"
"33185","Miami","Miami-Dade","31359"
"34472","Ocala","Marion","31344"
"32570","Milton","Santa Rosa","31341"
"32301","Tallahassee","Leon","31317"
"32909","Palm Bay","Brevard","31251"
"32773","Sanford","Seminole","31225"
"33904","Cape Coral","Lee","31086"
"33143","Miami","Miami-Dade","31056"
"32507","Pensacola","Escambia","31036"
"32221","Jacksonville","Duval","30900"
"32208","Jacksonville","Duval","30841"
"33626","Tampa","Hillsborough","30743"
"33145","Miami","Miami-Dade","30713"
"33837","Davenport","Polk","30634"
"32082","Ponte Vedra Beach","St. Johns","30539"
"34142","Immokalee","Collier","30534"
"32127","Daytona Beach","Volusia","30398"
"33771","Largo","Pinellas","30365"
"33809","Lakeland","Polk","30347"
"34231","Sarasota","Sarasota","30341"
"33919","Fort Myers","Lee","30330"
"32205","Jacksonville","Duval","30305"
"33138","Miami","Miami-Dade","30221"
"32607","Gainesville","Alachua","30214"
"32539","Crestview","Okaloosa","30131"
"33917","North Fort Myers","Lee","30049"
"34990","Palm City","Martin","29999"
"33570","Ruskin","Hillsborough","29967"
"32159","Lady Lake","Lake","29920"
"33130","Miami","Miami-Dade","29737"
"32533","Cantonment","Escambia","29713"
"33150","Miami","Miami-Dade","29652"
"33328","Fort Lauderdale","Broward","29626"
"32779","Longwood","Seminole","29603"
"32086","Saint Augustine","St. Johns","29580"
"33510","Brandon","Hillsborough","29574"
"33334","Fort Lauderdale","Broward","29494"
"33803","Lakeland","Polk","29460"
"34639","Land O Lakes","Pasco","29395"
"33325","Fort Lauderdale","Broward","29369"
"32583","Milton","Santa Rosa","29365"
"33144","Miami","Miami-Dade","29344"
"33404","West Palm Beach","Palm Beach","29339"
"32809","Orlando","Orange","29095"
"34684","Palm Harbor","Pinellas","29088"
"33442","Deerfield Beach","Broward","28964"
"33830","Bartow","Polk","28884"
"33705","Saint Petersburg","Pinellas","28857"
"33401","West Palm Beach","Palm Beach","28687"
"32003","Orange Park","Clay","28676"
"32958","Sebastian","Indian River","28617"
"34287","North Port","Sarasota","28614"
"32327","Crawfordville","Wakulla","28525"
"33569","Riverview","Hillsborough","28442"
"34986","Port St. Lucie","St. Lucie","28265"
"33544","Zephyrhills","Pasco","28187"
"33543","Zephyrhills","Pasco","28156"
"33069","Pompano Beach","Broward","28138"
"32757","Mount Dora","Lake","27990"
"33971","Lehigh Acres","Lee","27941"
"32832","Orlando","Orange","27919"
"33993","Cape Coral","Lee","27905"
"32819","Orlando","Orange","27840"
"32168","New Smyrna Beach","Volusia","27679"
"32806","Orlando","Orange","27661"
"33406","West Palm Beach","Palm Beach","27585"
"32937","Satellite Beach","Brevard","27551"
"34689","Tarpon Springs","Pinellas","27445"
"33168","Miami","Miami-Dade","27414"
"32927","Cocoa","Brevard","27377"
"33067","Pompano Beach","Broward","27358"
"33618","Tampa","Hillsborough","27352"
"33441","Deerfield Beach","Broward","27323"
"33764","Clearwater","Pinellas","27320"
"33470","Loxahatchee","Palm Beach","27317"
"33625","Tampa","Hillsborough","27305"
"33308","Fort Lauderdale","Broward","27294"
"33314","Fort Lauderdale","Broward","27261"
"32250","Jacksonville Beach","Duval","27246"
"34606","Spring Hill","Hernando","27209"
"34112","Naples","Collier","27064"
"33629","Tampa","Hillsborough","27061"
"33860","Mulberry","Polk","26893"
"33028","Hollywood","Broward","26848"
"32177","Palatka","Putnam","26845"
"33584","Seffner","Hillsborough","26798"
"32043","Green Cove Springs","Clay","26743"
"33770","Largo","Pinellas","26627"
"33755","Clearwater","Pinellas","26616"
"34491","Summerfield","Marion","26614"
"32789","Winter Park","Orange","26483"
"32962","Vero Beach","Indian River","26459"
"32117","Daytona Beach","Volusia","26425"
"33825","Avon Park","Highlands","26420"
"32505","Pensacola","Escambia","26354"
"33484","Delray Beach","Palm Beach","26299"
"33446","Delray Beach","Palm Beach","26006"
"32563","Gulf Breeze","Santa Rosa","25912"
"33547","Lithia","Hillsborough","25907"
"34471","Ocala","Marion","25734"
"33331","Fort Lauderdale","Broward","25718"
"33703","Saint Petersburg","Pinellas","25699"
"32605","Gainesville","Alachua","25556"
"33805","Lakeland","Polk","25529"
"33913","Fort Myers","Lee","25497"
"33189","Miami","Miami-Dade","25298"
"33928","Estero","Lee","25141"
"34982","Fort Pierce","St. Lucie","25135"
"32901","Melbourne","Brevard","25089"
"32750","Longwood","Seminole","25025"
"34769","St. Cloud","Osceola","24995"
"32233","Atlantic Beach","Duval","24979"
"33916","Fort Myers","Lee","24907"
"33781","Pinellas Park","Pinellas","24856"
"33707","Saint Petersburg","Pinellas","24767"
"34219","Parrish","Manatee","24750"
"33712","Saint Petersburg","Pinellas","24738"
"34202","Bradenton","Manatee","24637"
"33709","Saint Petersburg","Pinellas","24619"
"33444","Delray Beach","Palm Beach","24597"
"32223","Jacksonville","Duval","24571"
"34104","Naples","Collier","24520"
"33936","Lehigh Acres","Lee","24517"
"33907","Fort Myers","Lee","24429"
"33607","Tampa","Hillsborough","24384"
"34482","Ocala","Marion","24352"
"33166","Miami","Miami-Dade","24346"
"34109","Naples","Collier","24251"
"33558","Lutz","Hillsborough","24248"
"32536","Crestview","Okaloosa","24105"
"32060","Live Oak","Suwannee","24064"
"34110","Naples","Collier","23988"
"34974","Okeechobee","Okeechobee","23952"
"32953","Merritt Island","Brevard","23939"
"33426","Boynton Beach","Palm Beach","23866"
"33327","Fort Lauderdale","Broward","23811"
"34652","New Port Richey","Pasco","23688"
"33935","Labelle","Hendry","23513"
"33782","Pinellas Park","Pinellas","23443"
"32606","Gainesville","Alachua","23442"
"32025","Lake City","Columbia","23416"
"33486","Boca Raton","Palm Beach","23325"
"32905","Palm Bay","Brevard","23302"
"33950","Punta Gorda","Charlotte","23299"
"34476","Ocala","Marion","23279"
"32763","Orange City","Volusia","23277"
"34957","Jensen Beach","Martin","23204"
"33556","Odessa","Hillsborough","23182"
"33430","Belle Glade","Palm Beach","23172"
"33573","Sun City Center","Hillsborough","23170"
"33772","Seminole","Pinellas","23125"
"33137","Miami","Miami-Dade","22955"
"32701","Altamonte Springs","Seminole","22940"
"34654","New Port Richey","Pasco","22935"
"33897","Davenport","Polk","22752"
"33634","Tampa","Hillsborough","22719"
"33062","Pompano Beach","Broward","22692"
"33903","North Fort Myers","Lee","22657"
"32504","Pensacola","Escambia","22562"
"33496","Boca Raton","Palm Beach","22530"
"33991","Cape Coral","Lee","22516"
"34601","Brooksville","Hernando","22487"
"32726","Eustis","Lake","22485"
"32751","Maitland","Orange","22471"
"32778","Tavares","Lake","22454"
"32119","Daytona Beach","Volusia","22344"
"32967","Vero Beach","Indian River","22319"
"33811","Lakeland","Polk","22293"
"33870","Sebring","Highlands","22284"
"32311","Tallahassee","Leon","22264"
"32080","Saint Augustine","St. Johns","22261"
"33455","Hobe Sound","Martin","22200"
"32129","Port Orange","Volusia","22185"
"34113","Naples","Collier","22175"
"34677","Oldsmar","Pinellas","22169"
"32444","Lynn Haven","Bay","22163"
"33034","Homestead","Miami-Dade","22142"
"32960","Vero Beach","Indian River","22036"
"32308","Tallahassee","Leon","22029"
"32401","Panama City","Bay","22027"
"34234","Sarasota","Sarasota","21932"
"32926","Cocoa","Brevard","21915"
"33714","Saint Petersburg","Pinellas","21866"
"33184","Miami","Miami-Dade","21785"
"32548","Fort Walton Beach","Okaloosa","21708"
"33323","Fort Lauderdale","Broward","21651"
"33541","Zephyrhills","Pasco","21612"
"33431","Boca Raton","Palm Beach","21610"
"33566","Plant City","Hillsborough","21505"
"33603","Tampa","Hillsborough","21366"
"33901","Fort Myers","Lee","21364"
"34747","Kissimmee","Osceola","21354"
"34212","Bradenton","Manatee","21244"
"32128","Daytona Beach","Volusia","21183"
"33852","Lake Placid","Highlands","21099"
"34771","St. Cloud","Osceola","21052"
"32952","Merritt Island","Brevard","20966"
"34481","Ocala","Marion","20963"
"32305","Tallahassee","Wakulla","20902"
"32713","Debary","Volusia","20892"
"34972","Okeechobee","Okeechobee","20877"
"33487","Boca Raton","Palm Beach","20677"
"33405","West Palm Beach","Palm Beach","20633"
"32796","Titusville","Brevard","20609"
"33167","Miami","Miami-Dade","20582"
"33606","Tampa","Hillsborough","20576"
"33525","Dade City","Pasco","20576"
"33432","Boca Raton","Palm Beach","20487"
"33434","Boca Raton","Palm Beach","20486"
"34275","Nokomis","Sarasota","20472"
"33572","Apollo Beach","Hillsborough","20380"
"32829","Orlando","Orange","20376"
"34691","Holiday","Pasco","20257"
"34286","North Port","Sarasota","20178"
"32803","Orlando","Orange","20148"
"33181","Miami","Miami-Dade","20111"
"32609","Gainesville","Alachua","20105"
"33598","Wimauma","Hillsborough","20053"
"32836","Orlando","Orange","20053"
"34238","Sarasota","Sarasota","20049"
"34473","Ocala","Marion","19998"
"33140","Miami Beach","Miami-Dade","19938"
"32217","Jacksonville","Duval","19899"
"34470","Ocala","Marion","19794"
"33761","Clearwater","Pinellas","19794"
"33440","Clewiston","Hendry","19761"
"33763","Clearwater","Pinellas","19730"
"33711","Saint Petersburg","Pinellas","19706"
"32024","Lake City","Columbia","19452"
"33187","Miami","Miami-Dade","19392"
"32601","Gainesville","Alachua","19363"
"34736","Groveland","Lake","19271"
"34480","Ocala","Marion","19188"
"32934","Melbourne","Brevard","19105"
"32541","Destin","Okaloosa","19066"
"32141","Edgewater","Volusia","19031"
"32097","Yulee","Nassau","19030"
"32805","Orlando","Orange","18908"
"32408","Panama City","Bay","18864"
"33523","Dade City","Pasco","18835"
"32351","Quincy","Gadsden","18720"
"34285","Venice","Sarasota","18653"
"33635","Tampa","Hillsborough","18650"
"33912","Fort Myers","Lee","18646"
"33131","Miami","Miami-Dade","18477"
"33559","Lutz","Hillsborough","18473"
"32966","Vero Beach","Indian River","18462"
"34695","Safety Harbor","Pinellas","18382"
"33609","Tampa","Hillsborough","18367"
"33304","Fort Lauderdale","Broward","18351"
"34223","Englewood","Sarasota","18336"
"33716","Saint Petersburg","Pinellas","18242"
"33759","Clearwater","Pinellas","18236"
"34114","Naples","Collier","18223"
"33408","North Palm Beach","Palm Beach","18207"
"34788","Leesburg","Lake","18193"
"33774","Largo","Pinellas","18097"
"34237","Sarasota","Sarasota","18071"
"32804","Orlando","Orange","18023"
"34105","Naples","Collier","18011"
"33549","Lutz","Hillsborough","17998"
"34685","Palm Harbor","Pinellas","17998"
"34613","Brooksville","Hernando","17924"
"32433","Defuniak Springs","Walton","17877"
"33565","Plant City","Hillsborough","17864"
"34145","Marco Island","Collier","17834"
"34994","Stuart","Martin","17800"
"34233","Sarasota","Sarasota","17767"
"34420","Belleview","Marion","17749"
"32821","Orlando","Orange","17680"
"33605","Tampa","Hillsborough","17655"
"33773","Largo","Pinellas","17595"
"32428","Chipley","Washington","17564"
"33637","Tampa","Hillsborough","17555"
"32118","Daytona Beach","Volusia","17520"
"33413","West Palm Beach","Palm Beach","17487"
"34465","Beverly Hills","Citrus","17455"
"34446","Homosassa","Citrus","17454"
"33760","Clearwater","Pinellas","17336"
"32459","Santa Rosa Beach","Walton","17213"
"34474","Ocala","Marion","17143"
"33534","Gibsonton","Hillsborough","17123"
"33948","Port Charlotte","Charlotte","17122"
"34951","Fort Pierce","St. Lucie","17106"
"34117","Naples","Collier","17039"
"33704","Saint Petersburg","Pinellas","16982"
"33898","Lake Wales","Polk","16931"
"32766","Oviedo","Seminole","16855"
"33616","Tampa","Hillsborough","16781"
"33066","Pompano Beach","Broward","16752"
"33777","Seminole","Pinellas","16748"
"32922","Cocoa","Brevard","16709"
"33182","Miami","Miami-Dade","16607"
"34950","Fort Pierce","St. Lucie","16603"
"32055","Lake City","Columbia","16590"
"33146","Miami","Miami-Dade","16473"
"34210","Bradenton","Manatee","16462"
"34108","Naples","Collier","16450"
"34224","Englewood","Sarasota","16422"
"33706","Saint Petersburg","Pinellas","16321"
"33035","Homestead","Miami-Dade","16159"
"33190","Miami","Miami-Dade","16147"
"33708","Saint Petersburg","Pinellas","16083"
"33004","Dania","Broward","16082"
"34984","Port St. Lucie","St. Lucie","16035"
"32206","Jacksonville","Duval","16027"
"33872","Sebring","Highlands","15923"
"33136","Miami","Miami-Dade","15848"
"33330","Fort Lauderdale","Broward","15793"
"33701","Saint Petersburg","Pinellas","15728"
"34239","Sarasota","Sarasota","15716"
"32226","Jacksonville","Duval","15667"
"33602","Tampa","Hillsborough","15586"
"34241","Sarasota","Sarasota","15568"
"32310","Tallahassee","Leon","15544"
"33972","Lehigh Acres","Lee","15515"
"33412","West Palm Beach","Palm Beach","15472"
"34292","Venice","Sarasota","15398"
"34235","Sarasota","Sarasota","15303"
"32091","Starke","Bradford","15256"
"33498","Boca Raton","Palm Beach","15150"
"32656","Keystone Heights","Clay","15150"
"33815","Lakeland","Polk","15148"
"33983","Punta Gorda","Charlotte","15100"
"33527","Dover","Hillsborough","15092"
"32963","Vero Beach","Indian River","15027"
"34134","Bonita Springs","Lee","14992"
"33301","Fort Lauderdale","Broward","14988"
"32641","Gainesville","Alachua","14959"
"33469","Jupiter","Palm Beach","14924"
"32317","Tallahassee","Leon","14876"
"34731","Fruitland Park","Lake","14858"
"32413","Panama City Beach","Bay","14805"
"34442","Hernando","Citrus","14752"
"33765","Clearwater","Pinellas","14744"
"32534","Pensacola","Escambia","14742"
"34610","Spring Hill","Pasco","14698"
"33154","Miami","Miami-Dade","14634"
"33778","Largo","Pinellas","14582"
"32903","Indialantic","Brevard","14557"
"32011","Callahan","Nassau","14509"
"32176","Ormond Beach","Volusia","14460"
"33873","Wauchula","Hardee","14162"
"34947","Fort Pierce","St. Lucie","14155"
"33170","Miami","Miami-Dade","14121"
"33478","Jupiter","Palm Beach","14067"
"32669","Newberry","Alachua","14037"
"32653","Gainesville","Alachua","14030"
"33132","Miami","Miami-Dade","13849"
"33315","Fort Lauderdale","Broward","13801"
"32931","Cocoa Beach","Brevard","13771"
"33129","Miami","Miami-Dade","13750"
"33019","Hollywood","Broward","13729"
"32615","Alachua","Alachua","13635"
"34479","Ocala","Marion","13603"
"32425","Bonifay","Holmes","13586"
"33776","Seminole","Pinellas","13573"
"32063","Macclenny","Baker","13482"
"32254","Jacksonville","Duval","13431"
"32908","Palm Bay","Brevard","13397"
"33980","Port Charlotte","Charlotte","13342"
"34669","Hudson","Pasco","13304"
"34236","Sarasota","Sarasota","13217"
"34475","Ocala","Marion","13179"
"32968","Vero Beach","Indian River","13154"
"34103","Naples","Collier","13129"
"32220","Jacksonville","Duval","12981"
"33149","Key Biscayne","Miami-Dade","12943"
"32348","Perry","Taylor","12935"
"33403","West Palm Beach","Palm Beach","12794"
"33513","Bushnell","Sumter","12713"
"33483","Delray Beach","Palm Beach","12703"
"32219","Jacksonville","Duval","12685"
"34432","Dunnellon","Marion","12673"
"32569","Mary Esther","Okaloosa","12657"
"34604","Brooksville","Hernando","12608"
"33477","Jupiter","Palm Beach","12608"
"32696","Williston","Levy","12436"
"32784","Umatilla","Lake","12371"
"32344","Monticello","Jefferson","12356"
"32801","Orlando","Orange","12243"
"33305","Fort Lauderdale","Broward","12222"
"33567","Plant City","Hillsborough","12195"
"33868","Polk City","Polk","12081"
"32776","Sorrento","Lake","12029"
"32951","Melbourne Beach","Brevard","11974"
"34452","Inverness","Citrus","11903"
"32693","Trenton","Gilchrist","11882"
"32054","Lake Butler","Union","11811"
"32095","Saint Augustine","St. Johns","11800"
"32643","High Springs","Alachua","11666"
"34222","Ellenton","Manatee","11659"
"33896","Davenport","Polk","11654"
"33853","Lake Wales","Polk","11649"
"33332","Fort Lauderdale","Broward","11622"
"34102","Naples","Collier","11548"
"33592","Thonotosassa","Hillsborough","11546"
"33875","Sebring","Highlands","11522"
"32222","Jacksonville","Duval","11521"
"34288","North Port","Sarasota","11511"
"34240","Sarasota","Sarasota","11442"
"33955","Punta Gorda","Charlotte","11436"
"34690","Holiday","Pasco","11408"
"33981","Port Charlotte","Charlotte","11407"
"34461","Lecanto","Citrus","11380"
"32340","Madison","Madison","11374"
"32333","Havana","Gadsden","11314"
"32640","Hawthorne","Alachua","11299"
"32501","Pensacola","Escambia","11134"
"32446","Marianna","Jackson","11115"
"33843","Frostproof","Polk","11032"
"33859","Lake Wales","Polk","11025"
"32754","Mims","Brevard","10984"
"32736","Eustis","Lake","10848"
"32407","Panama City Beach","Bay","10822"
"33037","Key Largo","Monroe","10816"
"34996","Stuart","Martin","10741"
"32148","Interlachen","Putnam","10710"
"34450","Inverness","Citrus","10692"
"34453","Inverness","Citrus","10621"
"33954","Port Charlotte","Charlotte","10573"
"33931","Fort Myers Beach","Lee","10566"
"32820","Orlando","Orange","10442"
"34488","Silver Springs","Marion","10424"
"32439","Freeport","Walton","10413"
"34448","Homosassa","Citrus","10394"
"33982","Punta Gorda","Charlotte","10391"
"32579","Shalimar","Okaloosa","10338"
"32920","Cape Canaveral","Brevard","10283"
"34956","Indiantown","Martin","10258"
"32169","New Smyrna Beach","Volusia","10228"
"32038","Fort White","Columbia","10184"
"32409","Panama City","Bay","10144"
"32680","Old Town","Dixie","10139"
"33480","Palm Beach","Palm Beach","10031"
"32561","Gulf Breeze","Santa Rosa","9925"
"32833","Orlando","Orange","9857"
"33316","Fort Lauderdale","Broward","9736"
"34987","Port St. Lucie","St. Lucie","9717"
"33050","Marathon","Monroe","9443"
"32827","Orlando","Orange","9427"
"32052","Jasper","Hamilton","9427"
"32046","Hilliard","Nassau","9418"
"33947","Rotonda West","Charlotte","9096"
"32976","Sebastian","Brevard","9092"
"34428","Crystal River","Citrus","9043"
"33841","Fort Meade","Polk","8969"
"34211","Bradenton","Manatee","8898"
"32626","Chiefland","Levy","8782"
"33540","Zephyrhills","Pasco","8652"
"33476","Pahokee","Palm Beach","8513"
"32448","Marianna","Jackson","8405"
"34607","Spring Hill","Hernando","8403"
"33762","Clearwater","Pinellas","8355"
"34429","Crystal River","Citrus","8338"
"33850","Lake Alfred","Polk","8324"
"32136","Flagler Beach","Flagler","8306"
"32110","Bunnell","Flagler","8267"
"32618","Archer","Alachua","8264"
"34436","Floral City","Citrus","8169"
"33194","Miami","Miami-Dade","8081"
"32456","Port Saint Joe","Gulf","8036"
"32814","Orlando","Orange","8021"
"34434","Dunnellon","Citrus","8021"
"34431","Dunnellon","Marion","8002"
"33128","Miami","Miami-Dade","7992"
"32550","Destin","Walton","7978"
"32465","Wewahitchka","Gulf","7962"
"32179","Ocklawaha","Marion","7919"
"32440","Graceville","Jackson","7777"
"32134","Fort Mc Coy","Marion","7754"
"33597","Webster","Sumter","7702"
"34602","Brooksville","Hernando","7697"
"34229","Osprey","Sarasota","7674"
"34949","Fort Pierce","St. Lucie","7663"
"32112","Crescent City","Putnam","7646"
"32347","Perry","Taylor","7609"
"32132","Edgewater","Volusia","7570"
"32948","Fellsmere","Indian River","7564"
"32204","Jacksonville","Duval","7547"
"33834","Bowling Green","Hardee","7524"
"32424","Blountstown","Calhoun","7514"
"32435","Defuniak Springs","Walton","7494"
"34242","Sarasota","Sarasota","7465"
"33767","Clearwater Beach","Pinellas","7452"
"34688","Tarpon Springs","Pinellas","7443"
"32066","Mayo","Lafayette","7420"
"32040","Glen Saint Mary","Baker","7329"
"33957","Sanibel","Lee","7319"
"33715","Saint Petersburg","Pinellas","7296"
"34228","Longboat Key","Manatee","7283"
"33548","Lutz","Hillsborough","7222"
"34614","Brooksville","Hernando","7195"
"32612","Gainesville","Alachua","7164"
"33031","Homestead","Miami-Dade","7124"
"34251","Myakka City","Manatee","7115"
"32266","Neptune Beach","Duval","7101"
"32087","Sanderson","Baker","7097"
"32603","Gainesville","Alachua","6949"
"32064","Live Oak","Suwannee","6890"
"33471","Moore Haven","Glades","6866"
"33953","Port Charlotte","Charlotte","6741"
"32666","Melrose","Putnam","6664"
"33042","Summerland Key","Monroe","6623"
"34433","Dunnellon","Citrus","6574"
"32202","Jacksonville","Duval","6523"
"33158","Miami","Miami-Dade","6469"
"32321","Bristol","Liberty","6321"
"32352","Quincy","Gadsden","6246"
"33920","Alva","Lee","6243"
"32124","Daytona Beach","Volusia","6117"
"32535","Century","Escambia","6094"
"34946","Fort Pierce","St. Lucie","6079"
"32730","Casselberry","Seminole","5943"
"34753","Mascotte","Lake","5932"
"32189","Satsuma","Putnam","5874"
"32234","Jacksonville","Duval","5867"
"32466","Youngstown","Bay","5795"
"32145","Hastings","St. Johns","5723"
"32130","De Leon Springs","Volusia","5703"
"32460","Sneads","Jackson","5690"
"32619","Bell","Gilchrist","5639"
"33493","South Bay","Palm Beach","5532"
"32531","Baker","Okaloosa","5526"
"33785","Indian Rocks Beach","Pinellas","5432"
"34981","Fort Pierce","St. Lucie","5393"
"32508","Pensacola","Escambia","5383"
"32628","Cross City","Dixie","5380"
"33620","Tampa","Hillsborough","5318"
"32113","Citra","Marion","5216"
"34945","Fort Pierce","St. Lucie","5187"
"33070","Tavernier","Monroe","5132"
"34217","Bradenton Beach","Manatee","5079"
"32565","Jay","Santa Rosa","5014"
"32621","Bronson","Levy","4946"
"33043","Big Pine Key","Monroe","4933"
"33876","Sebring","Highlands","4888"
"32421","Altha","Calhoun","4834"
"33890","Zolfo Springs","Hardee","4773"
"32686","Reddick","Marion","4737"
"33538","Lake Panasoffkee","Sumter","4728"
"32735","Grand Island","Lake","4728"
"32324","Chattahoochee","Gadsden","4716"
"32668","Morriston","Levy","4678"
"32033","Elkton","St. Johns","4676"
"34734","Gotha","Orange","4591"
"32732","Geneva","Seminole","4576"
"33576","San Antonio","Pasco","4543"
"32617","Anthony","Marion","4541"
"32180","Pierson","Volusia","4535"
"32950","Malabar","Brevard","4522"
"34269","Arcadia","De Soto","4517"
"32580","Valparaiso","Okaloosa","4491"
"32008","Branford","Suwannee","4425"
"32577","Molino","Escambia","4390"
"32058","Lawtey","Bradford","4368"
"32464","Westville","Holmes","4367"
"32131","East Palatka","Putnam","4365"
"33838","Dundee","Polk","4358"
"32667","Micanopy","Alachua","4352"
"32331","Greenville","Madison","4193"
"32431","Cottondale","Jackson","4145"
"32083","Raiford","Union","4115"
"33922","Bokeelia","Lee","4108"
"32455","Ponce De Leon","Holmes","4081"
"34201","Bradenton","Manatee","3997"
"32322","Carrabelle","Franklin","3994"
"32071","O Brien","Suwannee","3903"
"32320","Apalachicola","Franklin","3887"
"32438","Fountain","Bay","3822"
"32744","Lake Helen","Volusia","3807"
"34773","St. Cloud","Osceola","3728"
"32009","Bryceville","Nassau","3661"
"34484","Oxford","Sumter","3637"
"32053","Jennings","Hamilton","3538"
"34756","Montverde","Lake","3505"
"33036","Islamorada","Monroe","3496"
"33956","Saint James City","Lee","3489"
"32462","Vernon","Washington","3488"
"34289","North Port","Sarasota","3481"
"32328","Eastpoint","Franklin","3415"
"33839","Eagle Lake","Polk","3356"
"32227","Jacksonville","Duval","3337"
"32767","Paisley","Lake","3334"
"32502","Pensacola","Escambia","3331"
"32442","Grand Ridge","Jackson","3299"
"32831","Orlando","Orange","3228"
"32343","Midway","Gadsden","3221"
"34449","Inglis","Levy","3192"
"32443","Greenwood","Jackson","3165"
"32764","Osteen","Volusia","3165"
"32542","Eglin Afb","Okaloosa","3128"
"33306","Fort Lauderdale","Broward","3124"
"32567","Laurel Hill","Okaloosa","3099"
"33827","Babson Park","Polk","3062"
"32759","Oak Hill","Volusia","3014"
"32564","Holt","Okaloosa","2959"
"34737","Howey In The Hills","Lake","2942"
"32195","Weirsdale","Marion","2926"
"32798","Zellwood","Orange","2882"
"34705","Astatula","Lake","2860"
"32568","Mc David","Escambia","2853"
"32702","Altoona","Lake","2796"
"32403","Panama City","Bay","2779"
"33621","Tampa","Hillsborough","2751"
"33514","Center Hill","Sumter","2717"
"32094","Wellborn","Suwannee","2575"
"32181","Pomona Park","Putnam","2558"
"32445","Malone","Jackson","2497"
"32949","Grant","Brevard","2468"
"32212","Jacksonville","Duval","2466"
"32059","Lee","Madison","2418"
"33857","Lorida","Highlands","2377"
"32102","Astor","Lake","2283"
"32096","White Springs","Hamilton","2186"
"33946","Placida","Charlotte","2104"
"32334","Hosford","Liberty","2024"
"32694","Waldo","Alachua","2023"
"32358","Sopchoppy","Wakulla","2021"
"32544","Hurlburt Field","Okaloosa","1962"
"32420","Alford","Jackson","1958"
"32346","Panacea","Wakulla","1933"
"32187","San Mateo","Putnam","1871"
"32709","Christmas","Orange","1832"
"32062","Mc Alpin","Suwannee","1826"
"33965","Fort Myers","Lee","1735"
"32044","Hampton","Bradford","1711"
"32625","Cedar Key","Levy","1686"
"33786","Belleair Beach","Pinellas","1565"
"32925","Patrick Afb","Brevard","1533"
"32140","Florahome","Putnam","1439"
"32190","Seville","Volusia","1309"
"32350","Pinetta","Madison","1272"
"32359","Steinhatchee","Taylor","1271"
"32616","Alachua","Alachua","1235"
"32430","Clarksville","Calhoun","1173"
"33849","Kathleen","Polk","1171"
"33851","Lake Hamilton","Polk","1153"
"33585","Sumterville","Sumter","1133"
"32336","Lamont","Jefferson","1128"
"32332","Gretna","Gadsden","1077"
"34797","Yalaha","Lake","1041"
"32427","Caryville","Washington","1034"
"32511","Pensacola","Escambia","1034"
"32622","Brooker","Bradford","1032"
"33848","Intercession City","Osceola","1022"
"32139","Georgetown","Putnam","971"
"32423","Bascom","Jackson","966"
"32410","Mexico Beach","Bay","964"
"33865","Ona","Hardee","958"
"33930","Felda","Hendry","930"
"34760","Oakland","Orange","863"
"32437","Ebro","Washington","843"
"32426","Campbellton","Jackson","814"
"33921","Boca Grande","Lee","813"
"32147","Hollister","Putnam","790"
"34681","Crystal Beach","Pinellas","730"
"34216","Anna Maria","Manatee","724"
"32193","Welaka","Putnam","705"
"32509","Pensacola","Escambia","675"
"33960","Venus","Highlands","672"
"32330","Greensboro","Gadsden","651"
"34137","Copeland","Collier","651"
"33877","Waverly","Polk","618"
"34215","Cortez","Manatee","596"
"34498","Yankeetown","Levy","585"
"33521","Coleman","Sumter","557"
"32449","Kinard","Calhoun","552"
"34762","Okahumpka","Lake","544"
"33051","Key Colony Beach","Monroe","534"
"32061","Lulu","Columbia","514"
"32228","Jacksonville","Duval","470"
"32079","Penney Farms","Clay","451"
"33109","Miami Beach","Miami-Dade","408"
"32648","Horseshoe Beach","Dixie","392"
"32664","Mc Intosh","Marion","391"
"32361","Wacissa","Jefferson","383"
"32658","La Crosse","Alachua","375"
"32970","Wabasso","Indian River","369"
"33438","Canal Point","Palm Beach","367"
"32157","Lake Como","Putnam","363"
"34138","Chokoloskee","Collier","340"
"34140","Goodland","Collier","337"
"33001","Long Key","Monroe","331"
"33867","River Ranch","Polk","327"
"33854","Fedhaven","Polk","294"
"33039","Homestead","Miami-Dade","280"
"33856","Nalcrest","Polk","270"
"32683","Otter Creek","Levy","268"
"32697","Worthington Springs","Union","253"
"32355","Saint Marks","Wakulla","244"
"34739","Kenansville","Osceola","243"
"33944","Palmdale","Glades","219"
"32463","Wausau","Washington","216"
"32072","Olustee","Baker","211"
"33122","Miami","Miami-Dade","205"
"34139","Everglades City","Collier","204"
"33924","Captiva","Lee","195"
"32639","Gulf Hammock","Levy","194"
"33847","Homeland","Polk","176"
"33503","Balm","Hillsborough","162"
"32692","Suwannee","Dixie","160"
"32447","Marianna","Jackson","159"
"34268","Nocatee","De Soto","157"
"32631","Earleton","Alachua","155"
"32323","Lanark Village","Franklin","137"
"33744","Bay Pines","Pinellas","122"
"34661","Nobleton","Hernando","104"
"34141","Ochopee","Collier","67"
"34679","Aripeka","Pasco","43"
"32530","Bagdad","Santa Rosa","40"
"32461","Rosemary Bch","Bay","36"
"32681","Orange Lake","Marion","31"
"32133","Eastlake Weir","Marion","17"
"32830","Orlando","Orange","6"
"34101","Naples","Collier","0"
"32432","Cypress","Jackson","0"
"32356","Salem","Taylor","0"
"34445","Holder","Citrus","0"
"33855","Indian Lake Estates","Polk","0"
"33101","Miami","Miami-Dade","0"
"32399","Tallahassee","Leon","0"
"33945","Pineland","Lee","0"